      2.10          N: GNSS NAV DATA                        RINEX VERSION / TYPE
fic2rin                                 04/10/2021 00:17:24 PGM / RUN BY / DATE
                                                            END OF HEADER
 1 21  4  9 10  0  0.0 7.208031602204e-04-9.777068044059e-12 0.000000000000e+00
    2.400000000000e+01 7.175000000000e+01 3.963022218640e-09 1.434207201607e+00
    3.699213266373e-06 1.067316858098e-02 7.672235369682e-06 5.153688789368e+03
    4.680000000000e+05-1.993030309677e-07-2.562620296244e+00 1.061707735062e-07
    9.839903108489e-01 2.435312500000e+02 8.277653637728e-01-8.018191132702e-09
    4.300179119721e-10 1.000000000000e+00 2.152000000000e+03 0.000000000000e+00
    2.400000000000e+00 0.000000000000e+00 4.656612873077e-09 2.400000000000e+01
    4.608000000000e+05 4.000000000000e+00
 9 21  4  9 10  0  0.0-3.376025706530e-04-2.842170943040e-12 0.000000000000e+00
    3.000000000000e+01-4.984375000000e+01 4.629121392915e-09-2.189241738089e+00
   -2.518296241760e-06 1.912755426019e-03 1.129694283009e-05 5.153814390182e+03
    4.680000000000e+05 1.303851604462e-08-4.942306961323e-01 3.725290298462e-08
    9.535058834730e-01 1.602812500000e+02 1.836754364009e+00-7.977475151004e-09
   -1.432202514126e-10 1.000000000000e+00 2.152000000000e+03 0.000000000000e+00
    2.400000000000e+00 0.000000000000e+00 1.396983861923e-09 3.000000000000e+01
    4.608000000000e+05 4.000000000000e+00
 6 21  4  9 10  0  0.0 5.973968654871e-06 2.614797267597e-12 0.000000000000e+00
    2.000000000000e+01 7.650000000000e+01 3.916948870928e-09 1.690045895070e+00
    4.043802618980e-06 2.297825645655e-03 7.148832082748e-06 5.153739940643e+03
    4.680000000000e+05 9.872019290924e-08-2.570871025475e+00 3.725290298462e-08
    9.834678896366e-01 2.523125000000e+02-1.000762951897e+00-7.844969631617e-09
    5.235932383315e-10 1.000000000000e+00 2.152000000000e+03 0.000000000000e+00
    2.400000000000e+00 0.000000000000e+00 3.725290298462e-09 2.000000000000e+01
    4.608000000000e+05 4.000000000000e+00
 5 21  4  9 10  0  0.0-3.857910633087e-05-1.136868377216e-12 0.000000000000e+00
    9.200000000000e+01-4.681250000000e+01 5.040209944975e-09-2.088691163834e+00
   -2.622604370117e-06 6.004623952322e-03 3.041699528694e-06 5.153847583771e+03
    4.680000000000e+05 6.146728992462e-08-1.560666782116e+00 1.862645149231e-09
    9.553653020910e-01 3.120312500000e+02 8.820041487502e-01-8.475710190207e-09
   -2.500104139373e-11 1.000000000000e+00 2.152000000000e+03 0.000000000000e+00
    3.400000000000e+00 0.000000000000e+00-1.117587089539e-08 9.200000000000e+01
    4.608000000000e+05 4.000000000000e+00
 3 21  4  9 10  0  0.0-1.318338327110e-04-1.068656274583e-11 0.000000000000e+00
    6.200000000000e+01-4.046875000000e+01 4.762341227771e-09 3.458730108849e-01
   -2.292916178703e-06 3.364358562976e-03 3.641471266747e-06 5.153618341446e+03
    4.680000000000e+05 1.117587089539e-08-1.524441807143e+00 0.000000000000e+00
    9.684134765941e-01 3.168437500000e+02 8.279147277087e-01-8.415707690862e-09
   -1.064330047904e-10 1.000000000000e+00 2.152000000000e+03 0.000000000000e+00
    2.400000000000e+00 0.000000000000e+00 1.862645149231e-09 6.200000000000e+01
    4.608000000000e+05 4.000000000000e+00
 7 21  4  9 10  0  0.0 1.165983267128e-04 1.170974428533e-11 0.000000000000e+00
    8.100000000000e+01 7.587500000000e+01 4.988064915783e-09 8.478576453599e-01
    4.239380359650e-06 1.471646933351e-02 8.031725883484e-06 5.153592267990e+03
    4.680000000000e+05-1.080334186554e-07 5.780057239842e-01 1.583248376846e-07
    9.521485134703e-01 2.224687500000e+02-2.342984945585e+00-8.522855011121e-09
    2.100087477073e-10 1.000000000000e+00 2.152000000000e+03 0.000000000000e+00
    3.400000000000e+00 0.000000000000e+00-1.117587089539e-08 8.100000000000e+01
    4.608000000000e+05 4.000000000000e+00
 4 21  4  9 10  0  0.0-1.908820122480e-04-2.046363078989e-12 0.000000000000e+00
    1.560000000000e+02-4.431250000000e+01 4.407326439980e-09 3.090527107625e+00
   -2.229586243629e-06 1.174137578346e-03 1.137703657150e-05 5.153770195007e+03
    4.680000000000e+05-1.862645149231e-08-4.437948325333e-01-1.303851604462e-08
    9.607024178433e-01 1.636562500000e+02-2.959211777243e+00-7.874256565821e-09
   -1.192906832215e-10 1.000000000000e+00 2.152000000000e+03 0.000000000000e+00
    2.400000000000e+00 0.000000000000e+00-4.190951585770e-09 4.120000000000e+02
    4.608000000000e+05 4.000000000000e+00
32 21  4  9 10  0  0.0 2.206303179264e-05 1.136868377216e-13 0.000000000000e+00
    1.100000000000e+01-6.453125000000e+01 4.470900516667e-09-1.935898414214e+00
   -3.278255462646e-06 4.833678016439e-03 1.144036650658e-05 5.153665058136e+03
    4.680000000000e+05 7.636845111847e-08-4.844054047666e-01-9.313225746155e-09
    9.575076783239e-01 1.557812500000e+02-2.393595506472e+00-7.909615181506e-09
   -1.085759511956e-10 1.000000000000e+00 2.152000000000e+03 0.000000000000e+00
    2.400000000000e+00 0.000000000000e+00 4.656612873077e-10 1.100000000000e+01
    4.608000000000e+05 4.000000000000e+00
21 21  4  9 10  0  0.0 1.096562482417e-04 2.842170943040e-12 0.000000000000e+00
    2.300000000000e+01 9.015625000000e+01 4.307679432139e-09-2.485280413882e+00
    4.917383193970e-06 2.418426692020e-02 7.502734661102e-06 5.153706588745e+03
    4.680000000000e+05 1.341104507446e-07-2.645023436094e+00 3.054738044739e-07
    9.568847019744e-01 2.249375000000e+02-1.157319953581e+00-7.732107787611e-09
    5.550231189407e-10 1.000000000000e+00 2.152000000000e+03 0.000000000000e+00
    2.400000000000e+00 0.000000000000e+00-1.024454832077e-08 2.300000000000e+01
    4.608000000000e+05 4.000000000000e+00
29 21  4  9 10  0  0.0-3.268718719482e-04-6.707523425575e-12 0.000000000000e+00
    6.800000000000e+01-1.112500000000e+01 3.660152460041e-09-2.499119282441e+00
   -6.146728992462e-07 1.697994419374e-03 1.230277121067e-05 5.153662340164e+03
    4.680000000000e+05 3.725290298462e-08 2.736759001432e+00 7.450580596924e-09
    9.844917918519e-01 1.543125000000e+02 2.112419414199e+00-7.573529753628e-09
   -2.728685089258e-10 1.000000000000e+00 2.152000000000e+03 0.000000000000e+00
    3.400000000000e+00 0.000000000000e+00-1.024454832077e-08 6.800000000000e+01
    4.608000000000e+05 4.000000000000e+00
19 21  4  9 10  0  0.0-1.528207212687e-05 5.002220859751e-12 0.000000000000e+00
    4.700000000000e+01-3.468750000000e+00 3.689439394246e-09-1.735631390871e-01
   -1.043081283569e-07 9.158247732557e-03 1.171603798866e-05 5.153628429413e+03
    4.680000000000e+05-2.495944499969e-07 2.769588470397e+00-7.636845111847e-08
    9.811617177810e-01 1.698125000000e+02 1.806385166301e+00-7.664247818114e-09
   -1.667926618696e-10 1.000000000000e+00 2.152000000000e+03 0.000000000000e+00
    2.400000000000e+00 0.000000000000e+00-1.583248376846e-08 4.700000000000e+01
    4.608000000000e+05 4.000000000000e+00
15 21  4  9 10  0  0.0-1.573939807713e-04 2.614797267597e-12 0.000000000000e+00
    4.400000000000e+01-8.334375000000e+01 5.134499586803e-09 2.687992134256e+00
   -4.339963197708e-06 1.308473059908e-02 1.135095953941e-05 5.153599151611e+03
    4.680000000000e+05 2.421438694000e-08-5.919896364817e-01-1.899898052216e-07
    9.290723325061e-01 1.420000000000e+02 9.754445198196e-01-8.051406801982e-09
   -2.410814705824e-10 1.000000000000e+00 2.152000000000e+03 0.000000000000e+00
    2.400000000000e+00 0.000000000000e+00-1.071020960808e-08 4.400000000000e+01
    4.608000000000e+05 4.000000000000e+00
24 21  4  9 10  0  0.0 6.984919309616e-09-4.547473508865e-13 0.000000000000e+00
    3.500000000000e+01 7.143750000000e+01 5.274148260874e-09 1.790418244941e+00
    3.645196557045e-06 1.101752219256e-02 8.871778845787e-06 5.153739355087e+03
    4.680000000000e+05-2.849847078323e-07 5.005410781165e-01 5.587935447693e-09
    9.355805712347e-01 1.962812500000e+02 7.383918815571e-01-8.423565161015e-09
    4.160887603384e-10 1.000000000000e+00 2.152000000000e+03 0.000000000000e+00
    3.400000000000e+00 0.000000000000e+00 2.793967723846e-09 3.500000000000e+01
    4.608000000000e+05 4.000000000000e+00
12 21  4  9 10  0  0.0-2.541393041611e-05-5.115907697473e-12 0.000000000000e+00
    9.900000000000e+01-2.846875000000e+01 4.604120351522e-09 1.071697226548e-01
   -1.491978764534e-06 8.490760461427e-03 4.744157195091e-06 5.153755809784e+03
    4.680000000000e+05-1.117587089539e-07 1.688409018476e+00 1.285225152969e-07
    9.738263042087e-01 2.949375000000e+02 1.196485557740e+00-8.319989418098e-09
   -4.200174954146e-10 1.000000000000e+00 2.152000000000e+03 0.000000000000e+00
    3.400000000000e+00 0.000000000000e+00-1.257285475731e-08 9.900000000000e+01
    4.608000000000e+05 4.000000000000e+00
10 21  4  9 10  0  0.0-9.835511445999e-05-7.844391802792e-12 0.000000000000e+00
    6.900000000000e+01-4.056250000000e+01 4.800914263064e-09-6.207809000277e-01
   -1.959502696991e-06 6.580474437214e-03 3.211200237274e-06 5.153667507172e+03
    4.680000000000e+05 9.685754776001e-08-1.527347386275e+00 1.229345798492e-07
    9.683007953291e-01 3.205625000000e+02-2.564179076419e+00-8.453923568421e-09
   -6.893144269984e-11 1.000000000000e+00 2.152000000000e+03 0.000000000000e+00
    2.400000000000e+00 0.000000000000e+00 2.328306436539e-09 6.900000000000e+01
    4.608000000000e+05 4.000000000000e+00
26 21  4  9 10  0  0.0 6.973324343562e-05 5.229594535194e-12 0.000000000000e+00
    1.800000000000e+01-1.975000000000e+01 5.310935507496e-09-8.951225842829e-01
   -1.056119799614e-06 5.797499790788e-03 3.367662429810e-06 5.153778295517e+03
    4.680000000000e+05 1.639127731323e-07 1.574267625126e+00-4.842877388000e-08
    9.421310210015e-01 3.057500000000e+02 3.019950228249e-01-8.637502643798e-09
   -3.035840740667e-10 1.000000000000e+00 2.152000000000e+03 0.000000000000e+00
    2.400000000000e+00 0.000000000000e+00 6.984919309616e-09 1.800000000000e+01
    4.608000000000e+05 4.000000000000e+00
